,TicketNumber,Longitude,Latitude,Zipcode,Classification,DateReported,CensusTrack,CensusBlock,CountyName
0,ML19001225,40.754020000000004,-73.97419000000001,10017,M,01/21/2019 09:15 PM,92,1003,New York County
1,ML19003831,40.771679999999996,-73.97763,10023,M,03/07/2019 08:40 AM,143,1040,New York County
2,ML19004663,40.75472,-73.97591,10017,M,03/21/2019 07:38 PM,92,1005,New York County
3,ML19005447,40.80325,-73.96749,10025,M,04/04/2019 02:50 PM,195,1005,New York County
4,ML19006608,40.78175,-73.96025999999999,10028,P,04/27/2019 10:15 AM,143,1024,New York County
5,ML19007355,40.71182,-74.00827,10007,M,05/11/2019 12:06 AM,21,1011,New York County
6,ML19008617,40.75372,-73.97743,10017,M,06/04/2019 08:19 AM,94,1008,New York County
7,ML19008706,40.792190000000005,-73.94255,10029,M,06/05/2019 12:55 PM,170,1000,New York County
8,ML19009693,40.70516,-74.00999,10005,P,06/22/2019 08:01 PM,9,1000,New York County
9,ML19010411,40.73267,-73.9816,10003,M,07/09/2019 03:04 PM,48,5000,New York County
10,ML19010899,40.743120000000005,-74.00274,10011,M,07/19/2019 10:51 AM,89,2001,New York County
11,ML19011112,40.83157,-73.94299000000001,10032,M,07/24/2019 09:44 AM,237,3000,New York County
12,ML19011870,40.77721,-73.95226,10028,P,08/08/2019 11:30 AM,146.01,1000,New York County
13,ML19012341,40.78889,-73.97041999999999,10024,M,08/16/2019 05:27 PM,173,3000,New York County
14,ML19012851,40.75385,-73.9738,10017,M,08/26/2019 10:30 AM,92,1012,New York County
15,ML19013467,40.70516,-74.00999,10005,P,09/05/2019 07:40 PM,9,1000,New York County
16,ML19013839,40.76297,-73.97188,10022,P,09/09/2019 08:50 PM,112.02,1001,New York County
17,ML19013954,40.75658,-73.98614,10036,P,09/11/2019 06:13 PM,119,1004,New York County
18,ML19014071,40.741659999999996,-74.00113,10011,M,09/13/2019 05:52 PM,81,2001,New York County
19,ML19014455,40.7238,-73.98564,10009,M,09/19/2019 03:12 PM,32,4000,New York County
20,ML19015054,40.76061,-73.96434,10022,P,09/30/2019 06:05 PM,110,3002,New York County
21,ML19015932,40.76709,-73.96661999999999,10065,P,10/14/2019 07:09 PM,120,3000,New York County
22,ML19016313,40.76059,-73.96938,10022,P,10/20/2019 03:37 PM,112.03,2002,New York County
23,ML19016353,40.77316,-73.9819,10023,P,10/21/2019 11:06 AM,149,2000,New York County
24,ML19016580,40.76931,-73.96363000000001,10021,P,10/24/2019 10:59 AM,120,4001,New York County
25,ML19016698,40.7623,-73.97236,10022,P,10/25/2019 08:39 PM,112.02,1002,New York County
26,ML19016971,40.82015,-73.94951999999999,10031,M,10/30/2019 10:25 AM,217.03,1004,New York County
27,ML19017160,40.70933,-74.00187,10038,P,11/02/2019 10:05 AM,15.01,3002,New York County
28,ML19017533,40.73597,-73.99566999999999,10011,M,11/07/2019 12:54 PM,63,1000,New York County
29,ML19017625,40.751,-73.98778,10018,M,11/08/2019 02:36 PM,109,1007,New York County
30,ML19017662,40.71472,-73.99198,10002,M,11/09/2019 09:40 AM,16,5006,New York County
31,ML19017863,40.74612,-73.97993000000001,10016,P,11/12/2019 08:27 PM,72,2000,New York County
32,ML19018126,40.84209,-73.92623,10452,M,11/17/2019 12:11 AM,201,3000,Bronx County
33,ML19018255,40.786840000000005,-73.94526,10029,M,11/19/2019 09:40 AM,164,3005,New York County
34,ML19018685,40.770990000000005,-73.96762,10021,M,11/25/2019 10:01 PM,122,4000,New York County
35,ML19018711,40.73424,-73.99975,10014,M,11/26/2019 10:38 AM,71,4004,New York County
36,ML19018928,40.75118,-73.98775,10018,M,11/30/2019 04:29 PM,109,1007,New York County
37,ML19018965,40.79983,-73.94612,10029,M,12/01/2019 12:46 PM,184,2001,New York County
38,ML19019045,40.78267,-73.98324000000001,10023,P,12/03/2019 08:13 AM,163,2000,New York County
39,ML19019101,40.76531,-73.96384,10065,M,12/04/2019 08:02 AM,118,7000,New York County
40,ML19019205,40.82821,-73.94676,10031,M,12/05/2019 10:55 PM,233,2000,New York County
41,ML19019215,40.77053,-73.96844,10065,M,12/06/2019 10:49 AM,143,1033,New York County
42,ML19019260,40.7659,-73.98496999999999,10019,P,12/06/2019 09:11 PM,139,4000,New York County
43,ML19019294,40.77507,-73.9823,10023,P,12/07/2019 03:06 PM,153.02,3001,New York County
44,QL18004912,40.756440000000005,-73.80735,11358,M,06/27/2018 02:50 PM,1199,1000,Queens County
45,QL18008408,40.78152,-73.81713,11357,M,11/09/2018 08:30 AM,1039,2009,Queens County
46,QL19000266,40.78369,-73.81743,11357,P,01/04/2019 02:32 PM,1039,2002,Queens County
47,QL19002795,40.75786,-73.83412,11354,M,04/11/2019 08:40 PM,871,1001,Queens County
48,QL19003739,40.71248,-74.0062,10007,M,05/22/2019 10:36 AM,31,1022,New York County
49,QL19003872,40.73169,-73.82568,11367,M,05/30/2019 12:32 PM,809,3000,Queens County
50,QL19004060,40.72929,-73.72616,11426,P,06/07/2019 10:48 AM,1621,4001,Queens County
51,QL19004565,40.75052,-73.7938,11358,M,06/26/2019 11:45 AM,1417,1000,Queens County
52,QL19006042,40.76377,-73.78737,11358,M,08/30/2019 08:22 AM,1139,2011,Queens County
53,QL19006050,40.77394,-73.79238000000001,11358,M,08/30/2019 11:43 AM,997.01,2011,Queens County
54,QL19006350,40.750659999999996,-73.78429,11365,M,09/09/2019 01:27 PM,1429,4000,Queens County
55,QL19006654,40.75768,-73.78011,11361,M,09/17/2019 02:50 PM,1463,1012,Queens County
56,QL19006671,40.76396,-73.79784000000001,11358,M,09/18/2019 11:40 AM,1175,1005,Queens County
57,QL19006735,40.7664,-73.73538,11362,M,09/20/2019 05:42 PM,1507.02,1006,Queens County
58,QL19006794,40.787259999999996,-73.84473,11356,M,09/23/2019 12:28 PM,947,2004,Queens County
59,QL19006833,40.77905,-73.90899999999999,11105,M,09/24/2019 09:06 PM,111,1001,Queens County
60,QL19006866,40.75589,-73.79377,11358,M,09/25/2019 06:38 PM,1459,1002,Queens County
61,QL19007058,40.77006,-73.8457,11354,P,10/02/2019 01:02 PM,907,1029,Queens County
62,QL19007363,40.74771,-73.77475,11364,M,10/14/2019 10:16 AM,1409.01,1008,Queens County
63,QL19007441,40.74665,-73.71763,11004,M,10/16/2019 10:02 AM,1551.04,4004,Queens County
64,QL19007859,40.74645,-73.82433,11355,P,10/26/2019 11:55 AM,799,1005,Queens County
65,QL19008127,40.76013,-73.77501,11361,P,11/03/2019 03:11 PM,1467,3006,Queens County
66,QL19008248,40.74726,-73.71899,11004,M,11/06/2019 11:28 AM,1551.03,5003,Queens County
67,QL19008283,40.74348,-73.87057,11373,M,11/07/2019 08:15 AM,463,2003,Queens County
68,QL19008327,40.75178,-73.76709,11364,M,11/07/2019 04:47 PM,1399,2008,Queens County
69,QL19008577,40.74292,-73.77616,11365,M,11/14/2019 07:09 PM,1347.02,2001,Queens County
70,QL19008585,40.76676,-73.76451999999999,11361,M,11/15/2019 10:21 AM,1113,3008,Queens County
71,QL19008627,40.748709999999996,-73.77521999999999,11364,M,11/16/2019 07:50 PM,1409.01,1001,Queens County
72,QL19008716,40.73265,-73.74766,11427,M,11/19/2019 05:56 PM,1291.02,4007,Queens County
73,QL19008745,40.751329999999996,-73.71330999999999,11005,M,11/20/2019 02:04 PM,1551.04,3000,Queens County
74,QL19008776,40.72636,-73.78429,11432,M,11/21/2019 10:49 AM,1277,2008,Queens County
75,QL19008864,40.7391,-73.81825,11367,P,11/23/2019 05:44 PM,803.02,3014,Queens County
76,QL19008929,40.7503,-73.81877,11355,M,11/25/2019 12:29 PM,1205,1004,Queens County
77,QL19008963,40.722359999999995,-73.80969,11366,M,11/26/2019 09:37 AM,1257,3002,Queens County
78,QL19008982,40.78938,-73.82366,11357,M,11/26/2019 01:16 PM,945,2002,Queens County
79,QL19009008,40.74726,-73.71899,11004,M,11/27/2019 10:31 AM,1551.03,5003,Queens County
80,QL19009018,40.78805,-73.84566,11356,M,11/27/2019 01:35 PM,939,2007,Queens County
81,QL19009153,40.75569,-73.82005,11355,P,12/03/2019 05:58 PM,859,2001,Queens County
82,QL19009158,40.75569,-73.82005,11355,M,12/04/2019 12:41 AM,859,2001,Queens County
83,QL19009181,40.75517,-73.76488,11364,M,12/04/2019 01:02 PM,1441,4001,Queens County
84,QL19009199,40.74702,-73.71854,11004,M,12/04/2019 03:32 PM,1551.04,4004,Queens County
85,QL19009212,40.748709999999996,-73.79223,11358,P,12/05/2019 09:02 AM,1417,2004,Queens County
86,QL19009221,40.73488,-73.74941,11427,P,12/05/2019 11:16 AM,1291.02,4005,Queens County
87,QL19009224,40.72777,-73.72577,11426,P,12/05/2019 11:39 AM,1621,4005,Queens County
88,QL19009246,40.75569,-73.82005,11355,M,12/05/2019 09:07 PM,859,2001,Queens County
89,QL19009252,40.74807,-73.72100999999999,11004,P,12/06/2019 08:54 AM,1567,1000,Queens County
90,QL19009253,40.77335,-73.81141,11354,M,12/06/2019 09:08 AM,1059,2005,Queens County
91,QL19009256,40.73466,-73.71296,11001,P,12/06/2019 09:50 AM,1571.01,7012,Queens County
92,QL19009264,40.73859,-73.79726,11365,P,12/06/2019 11:54 AM,1215,1000,Queens County
93,QL19009296,40.70015,-73.78396,11433,M,12/07/2019 11:11 AM,414,3001,Queens County
94,WL17007806,40.99023,-73.8232,10583,M,08/09/2017 03:23 PM,107.01,2025,Westchester County
95,WL18002550,41.031690000000005,-73.86765,10533,M,02/15/2018 02:45 PM,113,3012,Westchester County
96,WL18009064,41.151309999999995,-73.76978000000001,10514,M,08/10/2018 09:33 AM,131.02,3032,Westchester County
97,WL19000217,41.02267,-73.87048,10522,M,01/07/2019 02:50 PM,113,3025,Westchester County
98,WL19000325,40.918209999999995,-73.82871999999999,10550,M,01/10/2019 11:06 AM,40.02,1000,Westchester County
99,WL19000383,41.202059999999996,-73.64379,10506,P,01/11/2019 10:03 PM,127,2004,Westchester County
100,WL19000570,40.89496,-73.77982,10805,M,01/14/2019 03:24 PM,57.04,2002,Westchester County
101,WL19000619,40.934470000000005,-73.79094,10804,M,01/15/2019 02:43 PM,67,4012,Westchester County
102,WL19000734,40.96744,-73.73648,10543,M,01/18/2019 08:51 AM,73,2011,Westchester County
103,WL19000754,40.9279,-73.83229,10552,M,01/18/2019 01:11 PM,151,3013,Westchester County
104,WL19001552,41.01017,-73.75399999999999,10605,M,02/04/2019 08:28 AM,97.01,2004,Westchester County
105,WL19001708,40.915079999999996,-73.84718000000001,10550,M,02/06/2019 10:24 AM,37,3009,Westchester County
106,WL19001720,40.94931,-73.83468,10708,M,02/06/2019 12:43 PM,22.02,3003,Westchester County
107,WL19001940,41.04208,-73.74286,10604,M,02/11/2019 10:12 AM,87,1013,Westchester County
108,WL19001972,41.006,-73.68205999999999,10573,M,02/11/2019 02:41 PM,83.01,2030,Westchester County
109,WL19002215,40.92179,-73.85308,10704,M,02/16/2019 02:28 PM,24.03,2002,Westchester County
110,WL19002393,41.15429,-73.85989000000002,10562,M,02/21/2019 02:06 PM,133.04,2008,Westchester County
111,WL19003247,40.97197,-73.86753,10710,M,03/12/2019 10:38 AM,9,1002,Westchester County
112,WL19003540,40.95609,-73.71953,10543,M,03/18/2019 12:04 PM,74.02,2012,Westchester County
113,WL19003737,40.918479999999995,-73.84776,10704,M,03/22/2019 05:49 PM,24.03,1002,Westchester County
114,WL19004012,40.944359999999996,-73.85998000000001,10701,P,03/29/2019 04:02 PM,17.02,2026,Westchester County
115,WL19004326,40.932990000000004,-73.79124,10804,M,04/07/2019 12:26 PM,67,4014,Westchester County
116,WL19004496,40.96739,-73.78774,10804,M,04/11/2019 02:27 PM,68.01,3015,Westchester County
117,WL19005529,41.00428,-73.67043000000001,10573,M,05/08/2019 11:34 AM,80,3008,Westchester County
118,WL19006204,40.94422,-73.86053000000001,10701,M,05/23/2019 11:11 AM,17.02,1003,Westchester County
119,WL19006263,41.009240000000005,-73.66526,10573,M,05/24/2019 10:55 AM,81,4003,Westchester County
120,WL19006278,40.91559,-73.8222,10553,M,05/25/2019 07:31 AM,41,3023,Westchester County
121,WL19006302,40.94876,-73.76571,10538,M,05/26/2019 05:52 PM,69,2014,Westchester County
122,WL19006523,40.954,-73.72551999999999,10543,M,06/03/2019 01:31 PM,74.01,3008,Westchester County
123,WL19007098,41.04866,-73.85479000000001,10533,M,06/14/2019 11:07 AM,114.02,1047,Westchester County
124,WL19007151,41.01079,-73.65972,10573,M,06/15/2019 11:09 AM,81,4007,Westchester County
125,WL19007159,41.13583,-73.85834,10510,M,06/15/2019 04:44 PM,132.01,2021,Westchester County
126,WL19007304,40.91142,-73.88905,10705,P,06/19/2019 09:03 PM,13.02,3000,Westchester County
127,WL19007383,41.18485,-73.84476,10562,M,06/21/2019 06:47 PM,137,3004,Westchester County
128,WL19007610,40.95516,-73.72869,10543,M,06/27/2019 03:41 PM,74.01,3004,Westchester County
129,WL19007749,40.96278,-73.80429000000001,10709,M,07/02/2019 09:15 AM,50.02,3013,Westchester County
130,WL19007956,40.94618,-73.75551,10538,M,07/09/2019 10:52 AM,69,3015,Westchester County
131,WL19008220,41.16097,-73.76753000000001,10514,M,07/16/2019 12:16 PM,131.02,2007,Westchester County
132,WL19008235,41.02989,-73.8665,10533,M,07/16/2019 03:34 PM,113,2005,Westchester County
133,WL19008262,41.150929999999995,-73.77376,10514,M,07/17/2019 11:28 AM,121.01,2002,Westchester County
134,WL19008334,41.00801,-73.87959000000001,10522,M,07/18/2019 10:49 PM,104,3010,Westchester County
135,WL19008491,41.02616,-73.67817,10573,M,07/23/2019 04:48 PM,83.02,1003,Westchester County
136,WL19008670,41.005179999999996,-73.83689,10502,M,07/28/2019 02:00 PM,106,3042,Westchester County
137,WL19008890,41.02997,-73.86585,10533,M,08/03/2019 12:38 PM,113,2005,Westchester County
138,WL19009072,41.01787,-73.73035,10605,M,08/08/2019 12:19 PM,97.02,2026,Westchester County
139,WL19009118,41.04031,-73.77239,10603,M,08/09/2019 12:11 PM,90,2000,Westchester County
140,WL19009315,41.164229999999996,-73.77766,10514,M,08/14/2019 01:37 PM,131.04,3021,Westchester County
141,WL19009341,41.292229999999996,-73.78134,10598,M,08/15/2019 11:17 AM,148.08,2043,Westchester County
142,WL19009344,40.91798,-73.82516,10550,M,08/15/2019 11:29 AM,41,3006,Westchester County
143,WL19009349,40.953790000000005,-73.77854,10804,M,08/15/2019 12:52 PM,68.02,1001,Westchester County
144,WL19009632,40.94043,-73.898,10701,M,08/23/2019 06:54 AM,4.03,2006,Westchester County
145,WL19009811,40.955059999999996,-73.72896,10543,M,08/25/2019 01:10 PM,74.01,3009,Westchester County
146,WL19009830,41.02333,-73.76261,10605,M,08/26/2019 10:21 AM,95,2000,Westchester County
147,WL19009840,40.9559,-73.83068,10707,M,08/26/2019 12:38 PM,22.01,1032,Westchester County
148,WL19010282,40.9404,-73.77871999999999,10804,M,09/05/2019 10:46 AM,67,3003,Westchester County
149,WL19010513,41.03575,-73.86528,10533,M,09/08/2019 05:26 PM,113,4015,Westchester County
150,WL19010588,41.03575,-73.86528,10533,M,09/10/2019 10:57 AM,113,4015,Westchester County
151,WL19010622,41.0264,-73.78412,10606,M,09/11/2019 08:13 AM,91,2003,Westchester County
152,WL19010625,40.9441,-73.74502,10543,M,09/11/2019 10:28 AM,72,5009,Westchester County
153,WL19010997,40.96053,-73.68665,10580,M,09/19/2019 10:31 AM,76,3007,Westchester County
154,WL19011060,40.94103,-73.82635,10708,M,09/20/2019 10:50 AM,47,2030,Westchester County
155,WL19011075,40.984159999999996,-73.88071,10706,M,09/20/2019 01:09 PM,103,2005,Westchester County
156,WL19011272,41.13798,-73.85739000000001,10510,M,09/25/2019 02:49 PM,132.01,2016,Westchester County
157,WL19011352,41.16382,-73.77702,10514,M,09/27/2019 11:17 AM,131.04,3021,Westchester County
158,WL19011381,41.06503,-73.85259,10591,M,09/27/2019 02:44 PM,114.01,2002,Westchester County
159,WL19011463,40.91451,-73.89688000000001,10705,M,09/29/2019 09:54 AM,13.05,4002,Westchester County
160,WL19011595,40.93615,-73.79245999999999,10804,M,10/02/2019 01:18 PM,67,3043,Westchester County
161,WL19011667,41.00832,-73.69051999999999,10573,M,10/04/2019 11:20 AM,83.02,4030,Westchester County
162,WL19011719,41.04609,-73.78983000000001,10603,M,10/05/2019 01:23 PM,109.02,4025,Westchester County
163,WL19011912,40.963840000000005,-73.80527,10709,M,10/10/2019 03:34 PM,50.02,3013,Westchester County
164,WL19012048,41.1662,-73.77858,10514,M,10/13/2019 06:02 PM,131.04,3021,Westchester County
165,WL19012163,40.91132,-73.88899,10705,M,10/15/2019 06:05 PM,13.02,3000,Westchester County
166,WL19012182,40.93436,-73.84828,10708,M,10/16/2019 10:35 AM,22.04,3010,Westchester County
167,WL19012288,41.01797,-73.75686,10605,M,10/18/2019 01:57 PM,97.02,1003,Westchester County
168,WL19012578,41.03174,-73.68545,10573,M,10/24/2019 02:24 PM,83.02,3028,Westchester County
169,WL19012606,41.02704,-73.68682,10573,M,10/25/2019 11:10 AM,83.02,2001,Westchester County
170,WL19012629,40.96669,-73.77363000000001,10804,M,10/25/2019 03:33 PM,68.02,2001,Westchester County
171,WL19012658,40.90537,-73.81209,10803,M,10/26/2019 02:33 PM,54,2025,Westchester County
172,WL19012684,40.92349,-73.83197,10552,M,10/27/2019 02:15 PM,39,1010,Westchester County
173,WL19012716,41.00829,-73.78643000000001,10583,M,10/28/2019 11:00 AM,100,3008,Westchester County
174,WL19012864,41.021,-73.69033,10573,M,10/30/2019 05:36 PM,83.02,4003,Westchester County
175,WL19012922,40.93926,-73.77171,10804,M,11/01/2019 12:32 PM,67,2003,Westchester County
176,WL19012951,40.93742,-73.83189,10708,M,11/02/2019 09:40 AM,46,3000,Westchester County
177,WL19012982,40.992779999999996,-73.80303,10583,M,11/02/2019 08:12 PM,100,4035,Westchester County
178,WL19013082,40.93701,-73.7936,10804,M,11/05/2019 09:03 AM,66,1004,Westchester County
179,WL19013103,41.00294,-73.66641,10573,M,11/05/2019 11:50 AM,80,3009,Westchester County
180,WL19013114,41.06397,-73.83530999999999,10591,M,11/05/2019 01:28 PM,111.01,1009,Westchester County
181,WL19013187,41.00698,-73.78679,10583,M,11/06/2019 04:12 PM,100,3011,Westchester County
182,WL19013199,40.964040000000004,-73.79602,10804,M,11/06/2019 08:02 PM,68.01,3042,Westchester County
183,WL19013256,41.30063,-73.7931,10598,M,11/08/2019 08:46 AM,148.11,3012,Westchester County
184,WL19013329,40.93,-73.83491,10552,M,11/09/2019 01:47 PM,45,1001,Westchester County
185,WL19013352,40.94836,-73.76624,10538,M,11/10/2019 04:33 PM,70,4002,Westchester County
186,WL19013381,40.98076,-73.82313,10583,M,11/11/2019 12:22 PM,21.05,1006,Westchester County
187,WL19013386,40.92811,-73.81738,10552,M,11/11/2019 12:47 PM,151,1004,Westchester County
188,WL19013475,40.963440000000006,-73.77793,10804,M,11/13/2019 12:56 PM,68.02,2015,Westchester County
189,WL19013545,40.94275,-73.7558,10538,M,11/14/2019 02:02 PM,69,3036,Westchester County
190,WL19013551,40.939640000000004,-73.79897,10804,M,11/14/2019 02:24 PM,68.02,4010,Westchester County
191,WL19013565,41.06463,-73.85417,10591,M,11/14/2019 05:15 PM,114.01,2013,Westchester County
192,WL19013584,40.97318,-73.83593,10710,M,11/15/2019 07:41 AM,21.01,3007,Westchester County
193,WL19013588,41.08435,-73.77727,10595,M,11/15/2019 09:13 AM,119.02,2001,Westchester County
194,WL19013613,41.0648,-73.76655,10603,M,11/15/2019 11:46 AM,123.01,1026,Westchester County
195,WL19013616,40.98191,-73.83191,10710,M,11/15/2019 12:26 PM,21.01,1005,Westchester County
196,WL19013728,40.9279,-73.83229,10552,M,11/18/2019 10:34 AM,151,3013,Westchester County
197,WL19013822,40.95447,-73.79823,10804,M,11/19/2019 10:31 PM,68.02,3024,Westchester County
198,WL19013850,40.92999,-73.83491,10552,M,11/20/2019 11:51 AM,45,1001,Westchester County
199,WL19013864,41.03663,-73.76512,10601,M,11/20/2019 03:02 PM,89.01,5005,Westchester County
200,WL19013878,40.945879999999995,-73.8919,10703,M,11/20/2019 06:57 PM,6.02,4004,Westchester County
201,WL19013899,40.92204,-73.78255,10801,M,11/21/2019 09:26 AM,65,3000,Westchester County
202,WL19013904,40.969770000000004,-73.69237,10580,M,11/21/2019 10:13 AM,75,2002,Westchester County
203,WL19013907,40.91575,-73.79507,10801,M,11/21/2019 10:22 AM,63.01,1004,Westchester County
204,WL19013921,40.98962,-73.72138000000001,10528,M,11/21/2019 12:10 PM,85,1030,Westchester County
205,WL19013950,40.97937,-73.67841999999999,10580,M,11/21/2019 11:58 PM,76,6001,Westchester County
206,WL19013973,40.910509999999995,-73.8876,10705,M,11/22/2019 10:52 AM,13.02,3000,Westchester County
207,WL19014004,41.016659999999995,-73.6852,10573,M,11/23/2019 10:44 AM,83.02,4007,Westchester County
208,WL19014022,41.20945,-73.73165,10549,M,11/23/2019 05:19 PM,130,4026,Westchester County
209,WL19014155,41.07208,-73.8589,10591,M,11/25/2019 03:14 PM,114.01,4018,Westchester County
210,WL19014157,40.91388,-73.87859,10705,M,11/25/2019 03:28 PM,14.02,2005,Westchester County
211,WL19014191,40.94996,-73.84873,10710,M,11/26/2019 07:55 AM,22.03,2004,Westchester County
212,WL19014202,41.13303,-73.83628,10510,M,11/26/2019 10:18 AM,132.01,2036,Westchester County
213,WL19014203,41.18998,-73.87127,10562,M,11/26/2019 10:19 AM,137,1000,Westchester County
214,WL19014222,40.93555,-73.79224,10804,M,11/26/2019 12:58 PM,67,3043,Westchester County
215,WL19014235,41.00196,-73.87563,10706,M,11/26/2019 03:07 PM,102,1006,Westchester County
216,WL19014309,40.97699,-73.77547,10583,M,11/28/2019 11:12 AM,68.01,2003,Westchester County
217,WL19014447,40.96816,-73.80989,10709,M,12/03/2019 08:31 AM,50.02,2011,Westchester County
218,WL19014479,40.99915,-73.88165,10706,M,12/03/2019 05:07 PM,103,1004,Westchester County
219,WL19014493,40.9707,-73.78125,10804,M,12/04/2019 09:10 AM,68.01,3009,Westchester County
220,WL19014498,40.94871,-73.69171,10580,M,12/04/2019 10:28 AM,76,2005,Westchester County
221,WL19014500,40.973279999999995,-73.72162,10528,M,12/04/2019 10:51 AM,84.03,1010,Westchester County
222,WL19014504,41.00721,-73.87921999999999,10522,P,12/04/2019 11:37 AM,104,3010,Westchester County
223,WL19014544,40.98336,-73.72174,10528,M,12/04/2019 10:08 PM,85,1033,Westchester County
224,WL19014549,40.90574,-73.79281,10801,M,12/05/2019 08:40 AM,61,3000,Westchester County
225,WL19014551,41.12853,-73.70273,10504,M,12/05/2019 09:04 AM,123.03,1007,Westchester County
226,WL19014570,40.974140000000006,-73.8356,10710,P,12/05/2019 01:18 PM,21.01,3008,Westchester County
227,WL19014571,40.94811,-73.77764,10804,M,12/05/2019 01:49 PM,67,1008,Westchester County
228,WL19014586,41.3222,-73.77897,10598,P,12/06/2019 07:10 AM,148.11,4005,Westchester County
229,WL19014611,40.99713,-73.88283,10706,M,12/06/2019 11:33 AM,103,1004,Westchester County
230,WL19014613,41.02965,-73.78623,10606,P,12/06/2019 12:02 PM,91,2008,Westchester County
231,WL19014614,40.94466,-73.8804,10701,M,12/06/2019 12:03 PM,16,4011,Westchester County
232,WL19014623,40.935829999999996,-73.79234,10804,M,12/06/2019 02:06 PM,67,3043,Westchester County
233,WL19014631,40.9607,-73.68753000000001,10580,P,12/06/2019 03:42 PM,76,3007,Westchester County
234,WL19014643,41.00759,-73.87917,10522,M,12/07/2019 01:08 AM,104,3010,Westchester County
235,WL19014644,40.92131,-73.78979,10801,M,12/07/2019 02:23 AM,64,1006,Westchester County
236,WL19014656,41.0644,-73.76751,10603,P,12/07/2019 11:02 AM,123.01,1025,Westchester County
237,XL18005966,40.81532,-73.9306,10451,M,05/14/2018 08:33 PM,63.01,2036,Bronx County
238,XL19004681,40.91124,-73.9063,10471,M,04/10/2019 01:59 PM,319,1006,Bronx County
239,XL19007996,40.81922,-73.90442,10456,M,06/23/2019 10:03 AM,77,1006,Bronx County
240,XL19009240,40.883790000000005,-73.85306,10466,M,07/20/2019 10:18 AM,398,3001,Bronx County
241,XL19011962,40.82997,-73.86012,10472,P,09/16/2019 01:48 PM,72,1003,Bronx County
242,XL19012109,40.8114,-73.90679,10455,M,09/19/2019 10:57 AM,35,3000,Bronx County
243,XL19013105,40.827659999999995,-73.92604,10451,P,10/10/2019 11:45 AM,63.02,1004,Bronx County
244,XL19013278,40.81713,-73.90507,10455,M,10/14/2019 01:07 PM,79,1004,Bronx County
245,QL19008987,40.75049,-73.79308,11358,P,11/26/2019 02:38 PM,1417,1000,Queens County
246,QL19009072,40.75049,-73.79308,11358,P,11/30/2019 10:40 AM,1417,1000,Queens County
247,XL19013544,40.868970000000004,-73.89477,10468,M,10/20/2019 10:08 AM,403.03,3001,Bronx County
248,XL19014233,40.86115,-73.89699999999999,10458,M,11/03/2019 09:25 AM,237.02,1001,Bronx County
249,XL19014574,40.82747,-73.92616,10451,M,11/11/2019 09:03 AM,63.02,1004,Bronx County
250,XL19014737,40.88971,-73.90279,10471,M,11/14/2019 01:23 PM,351,1000,Bronx County
251,XL19014738,40.82863,-73.91141,10456,M,11/14/2019 01:30 PM,143,1006,Bronx County
252,XL19014924,40.87637,-73.82428,10475,M,11/18/2019 10:49 AM,462.03,4000,Bronx County
253,XL19014937,40.858470000000004,-73.8525,10469,M,11/18/2019 01:56 PM,318,2008,Bronx County
254,XL19015393,40.83763,-73.85384,10462,M,11/26/2019 10:08 AM,222,1003,Bronx County
255,XL19015764,40.85045,-73.7844,10464,M,12/05/2019 11:04 AM,516.01,1016,Bronx County
256,XL19015808,40.85629,-73.89372,10458,P,12/06/2019 11:07 AM,385,2001,Bronx County
257,XL19015830,40.87243,-73.89894,10468,M,12/06/2019 02:31 PM,267.02,1001,Bronx County
258,XL19015874,40.82285,-73.87933000000001,10473,P,12/07/2019 12:24 PM,28,1010,Bronx County
259,XL19015893,40.88796,-73.90938,10463,P,12/07/2019 11:02 PM,297,1005,Bronx County
260,ML19007215,40.74306,-73.9842,10016,P,05/09/2019 08:43 AM,68,1000,New York County
261,ML19018780,40.73065,-73.98306,10009,P,11/27/2019 10:06 AM,34,4001,New York County
262,ML19019323,40.72398,-73.98605,10009,M,12/08/2019 09:32 AM,32,4000,New York County
263,ML19019325,40.716390000000004,-73.9948,10002,P,12/08/2019 10:05 AM,16,1002,New York County
264,ML19019328,40.722159999999995,-74.01168,10013,M,12/08/2019 12:21 PM,39,2000,New York County
265,ML19019360,40.71669,-73.9863,10002,P,12/09/2019 12:26 AM,14.02,2006,New York County
266,ML19019364,40.722559999999994,-74.00142,10013,P,12/09/2019 08:52 AM,47,2010,New York County
267,ML19019382,40.7781,-73.94555,10128,M,12/09/2019 02:57 PM,152,5000,New York County
268,ML19019440,40.74263,-74.00043000000001,10011,P,12/10/2019 03:58 PM,89,2001,New York County
269,QL19009326,40.739309999999996,-73.78566000000002,11365,M,12/08/2019 10:32 AM,1347.01,1002,Queens County
270,QL19009332,40.73488,-73.74941,11427,P,12/08/2019 07:55 PM,1291.02,4005,Queens County
271,QL19009334,40.742090000000005,-73.77583,11365,M,12/08/2019 08:50 PM,1347.02,2001,Queens County
272,QL19009338,40.73057,-73.72516999999999,11426,P,12/09/2019 08:37 AM,1621,1001,Queens County
273,WL19014689,40.981809999999996,-73.70115,10580,M,12/08/2019 10:17 AM,77,3006,Westchester County
274,WL19014762,41.26099,-73.77553,10598,M,12/10/2019 01:13 PM,148.09,4043,Westchester County
275,XL19015908,40.84474,-73.90759,10457,M,12/08/2019 10:11 AM,229.02,1000,Bronx County
276,XL19015986,40.83082,-73.8172,10465,P,12/10/2019 09:01 AM,160,1009,Bronx County
277,XL19015991,40.8192,-73.89576,10459,M,12/10/2019 10:07 AM,87,2002,Bronx County
278,XL19016000,40.80867,-73.85194,10473,M,12/10/2019 12:05 PM,4,3002,Bronx County
279,ML19018545,40.85471,-73.92798,10040,P,11/23/2019 01:45 PM,277,3001,New York County
280,ML19019473,40.7435,-74.00185,10011,M,12/11/2019 11:54 AM,89,2001,New York County
281,ML19019474,40.74613,-73.99788000000001,10001,M,12/11/2019 11:55 AM,93,1002,New York County
282,ML19019504,40.78855,-73.94898,10029,M,12/11/2019 08:26 PM,166,6000,New York County
283,QL19009422,40.74645,-73.82433,11355,P,12/11/2019 11:22 AM,799,1005,Queens County
284,WL19014785,40.97056,-73.78154,10804,M,12/11/2019 09:49 AM,68.01,3011,Westchester County
285,WL19014798,41.22299,-73.71500999999999,10507,M,12/11/2019 12:00 PM,128.04,1027,Westchester County
286,WL19014811,40.94234,-73.75574,10538,M,12/11/2019 04:20 PM,69,3036,Westchester County
287,ML19019523,40.737120000000004,-74.00575,10014,P,12/12/2019 09:56 AM,77,3007,New York County
288,ML19019532,40.7238,-73.98564,10009,M,12/12/2019 11:32 AM,32,4000,New York County
289,ML19019555,40.753409999999995,-73.99632,10001,M,12/12/2019 10:33 PM,111,2005,New York County
290,QL19009497,40.78775,-73.78822,11360,P,12/12/2019 09:14 PM,997.05,1020,Queens County
291,WL19014826,41.06227,-73.8088,10523,M,12/12/2019 09:05 AM,110,1016,Westchester County
292,WL19014837,41.15879,-73.77559000000001,10514,M,12/12/2019 12:03 PM,131.04,4017,Westchester County
293,WL19014844,41.185790000000004,-73.73719,10549,M,12/12/2019 01:48 PM,131.02,4001,Westchester County
294,WL19014851,40.91237,-73.84387,10550,P,12/12/2019 05:01 PM,36,2008,Westchester County
295,WL19014853,40.99958,-73.7466,10605,M,12/12/2019 05:19 PM,97.03,3020,Westchester County
296,WL19014862,41.00974,-73.81111,10583,M,12/12/2019 08:43 PM,108.01,2018,Westchester County
297,WL19014863,40.94951,-73.71333,10580,M,12/12/2019 09:53 PM,75,3026,Westchester County
298,ML19019584,40.75009,-73.99499,10001,P,12/13/2019 01:18 PM,101,1005,New York County
299,QL19009529,40.769870000000004,-73.77506,11361,M,12/13/2019 05:14 PM,1097,2001,Queens County
300,QL19009535,40.75014,-73.80745999999999,11358,M,12/13/2019 09:44 PM,1207.01,2004,Queens County
301,WL19014871,40.95448,-73.8207,10707,M,12/13/2019 07:46 AM,48.02,5008,Westchester County
302,WL19014873,40.99955,-73.76225,10605,P,12/13/2019 08:25 AM,97.01,1011,Westchester County
303,WL19014876,41.0644,-73.76751,10603,P,12/13/2019 09:02 AM,123.01,1025,Westchester County
304,WL19014880,40.96353,-73.77774000000001,10804,M,12/13/2019 09:28 AM,68.02,2015,Westchester County
305,WL19014883,41.13585,-73.79028000000001,10570,M,12/13/2019 09:53 AM,122.02,6007,Westchester County
306,WL19014884,40.96546,-73.86791,10710,M,12/13/2019 10:23 AM,19,1008,Westchester County
307,WL19014891,41.0609,-73.86277,10591,M,12/13/2019 11:12 AM,114.02,1005,Westchester County
308,WL19014907,41.03845,-73.74811,10604,M,12/13/2019 01:42 PM,87,3000,Westchester County
309,WL19014911,41.03632,-73.83689,10607,P,12/13/2019 02:00 PM,111.01,4008,Westchester County
310,WL19014912,41.01425,-73.84056,10502,M,12/13/2019 02:12 PM,106,2004,Westchester County
311,WL19014916,40.996179999999995,-73.82048,10583,M,12/13/2019 04:01 PM,107.01,4014,Westchester County
312,WL19014917,41.105709999999995,-73.79385,10532,M,12/13/2019 04:10 PM,120,3019,Westchester County
313,WL19014921,40.9805,-73.83081999999999,10710,M,12/13/2019 05:02 PM,21.01,2008,Westchester County
314,WL19014925,41.20606,-73.89231,10520,M,12/13/2019 09:06 PM,139,3005,Westchester County
315,WL19014932,40.92857,-73.79673000000001,10804,P,12/14/2019 03:29 AM,66,2008,Westchester County
316,XL19016133,40.846709999999995,-73.88547,10460,M,12/13/2019 09:23 AM,371,1002,Bronx County
317,XL19016146,40.87875,-73.84629,10469,P,12/13/2019 11:56 AM,386,2007,Bronx County
318,XL19016163,40.86402,-73.86327,10467,P,12/13/2019 04:20 PM,328,1003,Bronx County
319,ML19019629,40.736340000000006,-74.00832,10014,P,12/14/2019 10:28 AM,79,2002,New York County
320,QL19009542,40.77655,-73.7735,11360,P,12/14/2019 10:36 AM,1093,2005,Queens County
321,WL19014941,41.20896,-73.88792,10520,M,12/14/2019 09:59 AM,139,4026,Westchester County
322,WL19014943,40.94641,-73.7634,10538,M,12/14/2019 09:49 AM,70,3000,Westchester County
323,WL19014945,40.9378,-73.72963,10543,P,12/14/2019 11:09 AM,72,2009,Westchester County
324,WL19014949,40.93824,-73.86559,10701,P,12/14/2019 11:54 AM,23,1000,Westchester County
325,WL19014956,40.99481,-73.78076,10583,M,12/14/2019 01:11 PM,99,3008,Westchester County
326,WL19014973,40.97671,-73.77443000000001,10583,P,12/14/2019 06:45 PM,98,1015,Westchester County
327,XL19016123,40.82798,-73.92585,10452,M,12/12/2019 08:35 PM,63.02,1003,Bronx County
328,ML19019678,40.72398,-73.98605,10009,M,12/15/2019 09:58 AM,32,4000,New York County
329,QL19009566,40.73512,-73.70555,11001,P,12/15/2019 10:52 AM,1579.03,3000,Queens County
330,WL19014984,40.9984,-73.71722,10580,M,12/15/2019 09:49 AM,85,2007,Westchester County
331,WL19015001,41.16409,-73.77739,10514,M,12/16/2019 03:42 AM,131.04,3021,Westchester County
332,ML19019021,40.77458,-73.96401999999999,10021,P,12/02/2019 01:46 PM,130,4000,New York County
333,ML19019721,40.7453,-73.98685,10001,M,12/16/2019 09:41 AM,76,2004,New York County
334,ML19019737,40.72605,-74.00962,10013,M,12/16/2019 01:07 PM,37,1009,New York County
335,QL19009583,40.73467,-73.74934,11427,M,12/16/2019 10:44 AM,1291.02,4004,Queens County
336,QL19009591,40.72132,-73.81138,11367,P,12/16/2019 12:28 PM,779.04,2003,Queens County
337,QL19009593,40.72203,-73.81674,11367,M,12/16/2019 12:53 PM,779.04,4000,Queens County
338,QL19009602,40.77505,-73.9193,11102,P,12/16/2019 07:27 PM,97,3000,Queens County
339,QL19009607,40.73445,-73.74931,11427,M,12/16/2019 11:00 PM,1291.02,4005,Queens County
340,WL19015010,41.26082,-73.94069,10511,P,12/16/2019 10:31 AM,140,1019,Westchester County
341,WL19015027,40.92655,-73.73425999999999,10543,P,12/16/2019 01:29 PM,72,4002,Westchester County
342,WL19015037,40.95432,-73.81212,10709,P,12/16/2019 03:11 PM,51,2006,Westchester County
343,WL19015045,40.98579,-73.83281,10583,M,12/16/2019 05:00 PM,107.01,2019,Westchester County
344,WL19015048,40.95252,-73.86607,10701,P,12/16/2019 05:16 PM,17.01,4008,Westchester County
345,XL19016269,40.86115,-73.89699999999999,10458,M,12/16/2019 08:21 AM,237.02,1001,Bronx County
346,XL19016292,40.82188,-73.80963,10465,M,12/16/2019 01:21 PM,138,1026,Bronx County
347,XL19016314,40.89674,-73.84227,10466,M,12/16/2019 06:19 PM,448,1002,Bronx County
348,ML19009535,40.77043,-73.96011,10021,M,06/19/2019 09:48 AM,126.01,1001,New York County
349,ML19018792,40.756640000000004,-73.98046,10036,P,11/27/2019 11:44 AM,96,1003,New York County
350,ML19019780,40.76903,-73.9849,10019,M,12/17/2019 07:48 AM,145,4000,New York County
351,ML19019789,40.74595,-73.99801,10011,M,12/17/2019 11:15 AM,91,3000,New York County
352,QL19009647,40.76435,-73.7344,11362,P,12/17/2019 06:56 PM,1507.02,2009,Queens County
353,WL19014408,41.02048,-73.78994,10530,M,12/02/2019 10:20 AM,108.04,1020,Westchester County
354,WL19015068,40.94899,-73.83811,10708,M,12/17/2019 08:41 AM,22.02,3010,Westchester County
355,WL19015106,40.94811,-73.77764,10804,P,12/17/2019 05:28 PM,67,1008,Westchester County
356,XL19016295,40.90378,-73.89929000000001,10471,P,12/16/2019 01:58 PM,345,2002,Bronx County
357,ML19019847,40.74735,-73.99699,10001,P,12/18/2019 11:00 AM,95,2003,New York County
358,ML19019861,40.72094,-73.9888,10002,P,12/18/2019 01:48 PM,30.01,2002,New York County
359,WL19015124,40.985170000000004,-73.83343,10710,M,12/18/2019 08:34 AM,21.01,2000,Westchester County
360,WL19015125,41.25351,-73.93330999999999,10548,P,12/18/2019 08:49 AM,146.04,1004,Westchester County
361,XL19016387,40.87915,-73.85931,10467,P,12/18/2019 07:28 AM,380,2000,Bronx County
362,ML19016350,40.80008,-73.95494000000001,10026,P,10/21/2019 10:35 AM,216,5000,New York County
363,ML19017813,40.74763,-73.97478000000001,10016,P,11/12/2019 08:10 AM,78,1000,New York County
364,ML19019901,40.75249,-73.98058,10017,P,12/19/2019 11:49 AM,82,1001,New York County
365,ML19019909,40.72224,-74.00078,10013,P,12/19/2019 01:21 PM,47,2011,New York County
366,QL19008983,40.74394,-73.70111,11040,M,11/26/2019 01:35 PM,1579.01,3000,Queens County
367,WL19015172,40.930820000000004,-73.85985,10704,P,12/19/2019 09:06 AM,24.05,1006,Westchester County
368,QL19009718,40.718759999999996,-73.74409,11428,M,12/20/2019 06:50 AM,542,2009,Queens County
369,QL19009720,40.73194,-73.80404,11365,P,12/20/2019 08:27 AM,1223,3009,Queens County
370,QL19009753,40.718759999999996,-73.74409,11428,M,12/20/2019 04:26 PM,542,2009,Queens County
371,WL19015214,40.94272,-73.85485,10701,M,12/20/2019 09:38 AM,23,2000,Westchester County
372,WL19015215,41.16441,-73.77797,10514,M,12/20/2019 09:44 AM,131.04,3025,Westchester County
373,WL19015218,40.964459999999995,-73.87886999999999,10703,P,12/20/2019 10:21 AM,8.01,1002,Westchester County
374,WL19015219,40.920190000000005,-73.85088,10704,P,12/20/2019 10:24 AM,24.03,1008,Westchester County
375,WL19015230,40.932140000000004,-73.88721,10701,M,12/20/2019 01:28 PM,11.02,3001,Westchester County
376,WL19015236,40.94702,-73.85826999999999,10701,M,12/20/2019 03:25 PM,17.02,2023,Westchester County
377,WL19015237,40.94723,-73.85818,10701,M,12/20/2019 03:41 PM,17.02,2023,Westchester County
378,WL19015258,40.965140000000005,-73.81758,10709,P,12/20/2019 10:44 PM,50.02,2020,Westchester County
379,ML19019998,40.741040000000005,-73.97865,10016,P,12/21/2019 01:00 AM,66,2000,New York County
380,ML19020011,40.83692,-73.94269,10032,M,12/21/2019 09:14 AM,245,4001,New York County
381,QL19009767,40.75911,-73.7905,11358,P,12/21/2019 09:04 AM,1175,4007,Queens County
382,QL19009777,40.74747,-73.71435,11004,M,12/21/2019 12:02 PM,1551.04,4002,Queens County
383,QL19009780,40.7227,-73.80072,11366,M,12/21/2019 01:19 PM,1265,1000,Queens County
384,QL19009781,40.74747,-73.71435,11004,M,12/21/2019 01:29 PM,1551.04,4002,Queens County
385,QL19009782,40.73985,-73.9279,11101,P,12/21/2019 03:51 PM,189,2006,Queens County
386,QL19009784,40.7605,-73.78052,11361,P,12/21/2019 04:06 PM,1463,1003,Queens County
387,QL19009785,40.75845,-73.78123000000001,11361,P,12/21/2019 05:15 PM,1463,1005,Queens County
388,QL19009787,40.7225,-73.80099,11432,M,12/21/2019 05:32 PM,1265,1000,Queens County
389,QL19009788,40.73466,-73.71296,11001,P,12/21/2019 06:26 PM,1571.01,7012,Queens County
390,WL19015277,41.05008,-73.81976,10523,M,12/21/2019 12:00 PM,112,1018,Westchester County
391,WL19015286,41.29717,-73.89402,10566,P,12/21/2019 01:26 PM,144,3000,Westchester County
392,WL19015295,40.93457,-73.89128000000001,10701,P,12/21/2019 06:00 PM,11.01,2004,Westchester County
393,WL19015300,40.92993,-73.80587,10708,M,12/21/2019 07:18 PM,52,1010,Westchester County
394,WL19015303,41.154759999999996,-73.85101999999999,10510,M,12/21/2019 09:38 PM,132.02,2014,Westchester County
395,WL19015308,41.29717,-73.89402,10566,P,12/22/2019 01:19 AM,144,3000,Westchester County
396,XL19016545,40.88585,-73.85691,10466,P,12/21/2019 10:26 AM,406,1004,Bronx County
397,XL19016547,40.813520000000004,-73.88479,10474,M,12/21/2019 11:05 AM,93.01,5003,Bronx County
398,XL19016563,40.82995,-73.86026,10472,P,12/21/2019 05:45 PM,72,1003,Bronx County
399,XL19016569,40.82996,-73.86015,10472,P,12/21/2019 09:35 PM,40.01,1000,Bronx County
400,ML19020049,40.86695,-73.92333,10034,M,12/22/2019 08:39 AM,295,3001,New York County
401,QL19009803,40.72309,-73.80091,11366,P,12/22/2019 01:04 PM,1241,2007,Queens County
402,QL19009812,40.759370000000004,-73.79054000000001,11358,M,12/22/2019 04:43 PM,1175,4007,Queens County
403,WL19015310,40.927640000000004,-73.74636,10538,M,12/22/2019 08:10 AM,71,1005,Westchester County
404,WL19015314,41.20985,-73.88973,10520,P,12/22/2019 10:00 AM,139,4000,Westchester County
405,WL19015323,40.953070000000004,-73.71325999999999,10580,M,12/22/2019 12:47 PM,75,3023,Westchester County
406,WL19015334,40.94601,-73.88723,10703,M,12/22/2019 08:10 PM,6.01,2001,Westchester County
407,WL19015336,40.965559999999996,-73.86969,10710,P,12/22/2019 09:11 PM,19,1007,Westchester County
408,ML19020087,40.78297,-73.9553,10128,P,12/23/2019 09:18 AM,150.02,1000,New York County
409,ML19020098,40.79092,-73.93913,10029,P,12/23/2019 11:16 AM,170,5000,New York County
410,ML19020114,40.7179,-74.00624,10013,M,12/23/2019 03:38 PM,33,2007,New York County
411,ML19020123,40.742940000000004,-73.99085,10010,P,12/23/2019 05:47 PM,58,1007,New York County
412,ML19020132,40.72094,-73.9888,10002,M,12/23/2019 10:43 PM,30.01,2002,New York County
413,QL19009826,40.73093,-73.8005,11365,P,12/23/2019 10:57 AM,1241,1002,Queens County
414,QL19009828,40.73061,-73.79381,11365,P,12/23/2019 11:18 AM,1247,2009,Queens County
415,QL19009836,40.73093,-73.8005,11365,P,12/23/2019 12:44 PM,1241,1002,Queens County
416,QL19009838,40.77363,-73.77766,11360,P,12/23/2019 01:13 PM,1093,3006,Queens County
417,WL19015344,40.92458,-73.76834000000001,10801,M,12/23/2019 10:00 AM,59.02,2002,Westchester County
418,XL19016627,40.82925,-73.85994000000001,10472,P,12/23/2019 08:02 AM,72,1002,Bronx County
419,XL19016628,40.90218,-73.84161,10466,M,12/23/2019 08:10 AM,444,4001,Bronx County
420,XL19016665,40.87471,-73.90357,10463,M,12/23/2019 02:55 PM,273,1003,Bronx County
421,ML19020148,40.70577,-74.00697,10005,P,12/24/2019 12:11 PM,7,1005,New York County
422,QL19009871,40.74568,-73.78291,11365,P,12/24/2019 11:39 PM,1409.02,1000,Queens County
423,QL19009872,40.74573,-73.78275,11365,P,12/24/2019 11:40 PM,1409.02,1000,Queens County
424,WL19015392,40.99819,-73.7703,10583,M,12/24/2019 09:57 AM,99,2001,Westchester County
425,WL19015395,40.94234,-73.75574,10538,M,12/24/2019 10:52 AM,69,3036,Westchester County
426,WL19015398,40.9794,-73.78166,10583,M,12/24/2019 12:15 PM,68.01,2010,Westchester County
427,WL19015501,40.936679999999996,-73.86166,10701,M,12/24/2019 07:58 PM,23,2012,Westchester County
428,WL19015515,40.94911,-73.86961,10701,M,12/24/2019 10:03 PM,17.01,6009,Westchester County
429,WL19015519,40.94575,-73.87139,10701,P,12/24/2019 10:55 PM,17.01,3003,Westchester County
430,WL19015544,40.96477,-73.86976,10710,P,12/25/2019 03:09 AM,19,1007,Westchester County
431,ML19020183,40.73556,-73.98659,10003,M,12/25/2019 01:32 PM,50,5000,New York County
432,ML19020196,40.71008,-74.00744,10038,P,12/25/2019 08:40 PM,15.01,1015,New York County
433,QL19009882,40.75092,-73.79044,11358,M,12/25/2019 10:03 PM,1459,3002,Queens County
434,WL19015548,40.99819,-73.7703,10583,M,12/25/2019 10:11 AM,99,2001,Westchester County
435,WL19015557,40.98407,-73.69631,10580,M,12/25/2019 02:55 PM,77,3005,Westchester County
436,WL19015568,40.97638,-73.78998,10583,P,12/25/2019 11:41 PM,68.01,4011,Westchester County
437,ML19020218,40.83728,-73.94008000000001,10032,M,12/26/2019 01:41 PM,245,1001,New York County
438,ML19020240,40.74325,-73.99158,10010,P,12/27/2019 12:38 AM,58,1007,New York County
439,QL19009894,40.75822,-73.94117,11101,M,12/26/2019 10:07 AM,85,2002,Queens County
440,QL19009909,40.76764,-73.78624,11361,M,12/26/2019 03:43 PM,1099,1006,Queens County
441,QL19009910,40.7376,-73.71534,11426,M,12/26/2019 04:49 PM,1571.01,6007,Queens County
442,WL19015573,40.962559999999996,-73.80404,10709,M,12/26/2019 07:37 AM,50.02,3013,Westchester County
443,WL19015585,41.03575,-73.86528,10533,M,12/26/2019 12:57 PM,113,4015,Westchester County
444,WL19015590,41.04802,-73.81022,10523,M,12/26/2019 02:16 PM,112,2040,Westchester County
445,WL19015603,40.9093,-73.78028,10801,M,12/26/2019 05:34 PM,59.01,3002,Westchester County
446,WL19015614,40.94845,-73.77245,10804,M,12/26/2019 10:09 PM,67,1008,Westchester County
447,XL19016755,40.903459999999995,-73.8549,10470,P,12/26/2019 09:46 AM,414,4013,Bronx County
448,XL19016794,40.81735,-73.91971,10451,M,12/26/2019 07:05 PM,65,3000,Bronx County
449,QL19009948,40.741690000000006,-73.81303,11355,M,12/27/2019 04:35 PM,1215,2007,Queens County
450,WL19015619,40.90573,-73.83176,10550,M,12/27/2019 07:49 AM,32,2004,Westchester County
451,WL19015620,41.04152,-73.86186000000002,10533,M,12/27/2019 07:49 AM,113,1007,Westchester County
452,WL19015625,41.04198,-73.86012,10533,M,12/27/2019 10:00 AM,113,1007,Westchester County
453,WL19015634,40.982820000000004,-73.83731,10710,P,12/27/2019 11:06 AM,21.01,2004,Westchester County
454,WL19015639,41.15513,-73.85579,10510,M,12/27/2019 11:40 AM,132.02,2012,Westchester County
455,WL19015647,40.91104,-73.86406,10704,M,12/27/2019 12:14 PM,15.04,4006,Westchester County
456,WL19015653,40.9359,-73.8564,10704,P,12/27/2019 01:25 PM,23,2026,Westchester County
457,WL19015658,40.992129999999996,-73.66738000000001,10573,P,12/27/2019 02:23 PM,78,3003,Westchester County
458,WL19015671,41.052170000000004,-73.81356,10523,P,12/27/2019 06:57 PM,112,3025,Westchester County
459,WL19015673,40.92972,-73.82431,10552,M,12/27/2019 07:20 PM,151,2013,Westchester County
460,WL19015677,40.95094,-73.69116,10580,M,12/27/2019 09:26 PM,76,2005,Westchester County
461,WL19015680,40.91975,-73.7705,10801,P,12/28/2019 12:36 AM,59.02,2017,Westchester County
462,QL19009955,40.74737,-73.71608,11004,M,12/28/2019 08:43 AM,1551.04,4003,Queens County
463,QL19009959,40.75725,-73.81047,11355,P,12/28/2019 12:49 PM,1189,1007,Queens County
464,QL19009964,40.74219,-73.93408000000001,11101,P,12/28/2019 08:46 PM,199.01,1004,Queens County
465,WL19015684,40.89718,-73.80396999999999,10803,M,12/28/2019 05:30 AM,55,1017,Westchester County
466,WL19015695,41.04658,-73.86079000000001,10533,M,12/28/2019 12:28 PM,113,1013,Westchester County
467,WL19015703,40.99519,-73.75809,10583,M,12/28/2019 04:47 PM,98,2000,Westchester County
468,WL19015709,40.91945,-73.8085,10803,M,12/28/2019 06:28 PM,53,2002,Westchester County
469,WL19015717,40.9467,-73.89187,10703,M,12/29/2019 12:37 AM,6.02,4001,Westchester County
470,ML19020315,40.78967,-73.96985,10024,P,12/29/2019 07:22 AM,177,6000,New York County
471,ML19020324,40.71693,-73.9987,10013,M,12/29/2019 02:43 PM,29.02,2001,New York County
472,ML19020325,40.78844,-73.94906,10029,M,12/29/2019 02:46 PM,166,6000,New York County
473,WL19015725,40.99255,-73.76091,10583,P,12/29/2019 11:20 AM,98,2026,Westchester County
474,WL19015733,41.02727,-73.80238,10530,M,12/29/2019 05:18 PM,108.03,2013,Westchester County
475,XL19016894,40.88973,-73.83673,10466,P,12/29/2019 09:08 PM,426,3000,Bronx County
476,QL19010003,40.719640000000005,-73.82554,11367,P,12/30/2019 06:16 PM,779.03,3002,Queens County
477,XL19016915,40.8747,-73.90357,10463,P,12/30/2019 12:50 PM,273,1003,Bronx County
478,ML19020412,40.74907,-73.98603,10016,M,12/31/2019 01:21 PM,76,1000,New York County
479,QL19010031,40.74565,-73.92484,11104,P,12/31/2019 04:58 PM,181.01,2001,Queens County
480,WL19015783,41.07626,-73.85834,10591,M,12/31/2019 09:47 AM,115,1022,Westchester County
481,WL19015786,40.94443,-73.77646,10804,M,12/31/2019 10:08 AM,67,1016,Westchester County
482,WL19015788,41.15513,-73.85579,10510,M,12/31/2019 10:30 AM,132.02,2012,Westchester County
483,WL19015790,40.92179,-73.88809,10705,P,12/31/2019 11:02 AM,13.01,2013,Westchester County
484,WL19015791,41.13282,-73.86576,10510,M,12/31/2019 11:38 AM,132.01,2052,Westchester County
485,WL19015796,41.04802,-73.81022,10523,M,12/31/2019 12:29 PM,112,2040,Westchester County
486,WL19015799,40.92168,-73.75433000000001,10538,M,12/31/2019 01:02 PM,71,3014,Westchester County
487,WL19015805,41.06688,-73.85540999999999,10591,M,12/31/2019 03:56 PM,114.01,2004,Westchester County
488,ML20000025,40.72011,-74.00288,10013,P,01/01/2020 08:32 PM,47,2014,New York County
489,WL20000016,41.03897,-73.81011,10607,P,01/01/2020 06:26 PM,109.03,4041,Westchester County
490,XL20000023,40.810109999999995,-73.92359,10454,M,01/01/2020 08:23 PM,39,2001,Bronx County
491,ML20000034,40.76144,-73.95772,10065,P,01/02/2020 07:47 AM,106.02,1000,New York County
492,ML20000048,40.70831,-74.00967,10005,P,01/02/2020 11:03 AM,7,1000,New York County
493,ML20000070,40.76522,-73.98917,10019,M,01/02/2020 06:42 PM,133,4001,New York County
494,QL20000009,40.77278,-73.77558,11361,P,01/02/2020 09:09 AM,1093,3007,Queens County
495,QL20000027,40.73859,-73.79726,11365,M,01/02/2020 12:11 PM,1215,1000,Queens County
496,QL20000034,40.77709,-73.751,11363,M,01/02/2020 02:36 PM,1483,3017,Queens County
497,QL20000035,40.781459999999996,-73.91561,11105,M,01/02/2020 02:37 PM,103,2001,Queens County
498,QL20000039,40.71501,-73.80911,11432,P,01/02/2020 06:48 PM,230,1001,Queens County
499,WL19014605,40.95903,-73.72984,10543,M,12/06/2019 10:47 AM,74.01,3000,Westchester County
500,WL20000024,40.914970000000004,-73.87732,10705,P,01/02/2020 07:49 AM,14.02,2004,Westchester County
501,WL20000025,41.06844,-73.79630999999999,10603,M,01/02/2020 08:10 AM,109.01,1017,Westchester County
502,WL20000027,40.941629999999996,-73.79154,10804,P,01/02/2020 09:20 AM,67,3010,Westchester County
503,WL20000029,41.27285,-73.93081,10566,M,01/02/2020 09:40 AM,141,3018,Westchester County
504,WL20000030,40.974059999999994,-73.77287,10583,M,01/02/2020 09:42 AM,98,4012,Westchester County
505,WL20000034,40.94288,-73.84153,10708,P,01/02/2020 10:19 AM,22.02,4027,Westchester County
506,WL20000038,41.32512,-73.88268000000001,10567,M,01/02/2020 11:03 AM,147.03,2011,Westchester County
507,WL20000039,40.96557,-73.71643,10528,M,01/02/2020 11:04 AM,84.04,5008,Westchester County
508,WL20000042,40.99334,-73.67689,10573,M,01/02/2020 11:50 AM,79.01,2012,Westchester County
509,WL20000051,41.28403,-73.93056,10566,P,01/02/2020 02:26 PM,141,4003,Westchester County
510,WL20000058,41.13895,-73.77188000000001,10570,M,01/02/2020 04:39 PM,121.01,2019,Westchester County
511,WL20000064,41.01403,-73.6601,10573,M,01/02/2020 06:09 PM,81,1006,Westchester County
512,WL20000067,40.89483,-73.7799,10805,M,01/02/2020 08:40 PM,57.04,2002,Westchester County
513,XL20000035,40.878040000000006,-73.83322,10475,P,01/02/2020 09:53 AM,462.07,3005,Bronx County
514,XL20000038,40.86988,-73.90088,10468,P,01/02/2020 10:21 AM,267.01,1001,Bronx County
515,XL20000060,40.850359999999995,-73.78473000000001,10464,P,01/02/2020 02:36 PM,516.01,1016,Bronx County
516,XL20000080,40.84806,-73.78439,10464,P,01/02/2020 08:58 PM,516.01,3004,Bronx County
517,ML20000086,40.77867,-73.97964,10023,P,01/03/2020 07:27 AM,157,5000,New York County
518,ML20000098,40.763020000000004,-73.99364,10036,P,01/03/2020 09:51 AM,129.02,1008,New York County
519,ML20000104,40.72358,-73.99271999999999,10002,P,01/03/2020 11:40 AM,36.01,3001,New York County
520,ML20000109,40.79508,-73.96221,10025,M,01/03/2020 12:46 PM,189,2001,New York County
521,ML20000120,40.70831,-74.00967,10005,P,01/03/2020 01:57 PM,7,1000,New York County
522,ML20000126,40.73986,-73.97775,10016,P,01/03/2020 04:00 PM,66,8002,New York County
523,WL20000077,41.17669,-73.8444,10562,M,01/03/2020 09:22 AM,135,1007,Westchester County
524,WL20000085,41.2931,-73.85318000000001,10547,M,01/03/2020 10:25 AM,148.05,1023,Westchester County
525,WL20000092,40.91572,-73.85656999999999,10704,M,01/03/2020 11:53 AM,24.03,4025,Westchester County
526,WL20000094,41.2926,-73.89829,10566,M,01/03/2020 12:39 PM,145,1004,Westchester County
527,WL20000097,40.96537,-73.73233,10543,P,01/03/2020 01:06 PM,73,2000,Westchester County
528,WL20000108,41.15513,-73.85579,10510,M,01/03/2020 02:33 PM,132.02,2012,Westchester County
529,WL20000109,41.026720000000005,-73.68675,10573,M,01/03/2020 02:37 PM,83.02,2004,Westchester County
530,WL20000115,41.06688,-73.85540999999999,10591,P,01/03/2020 03:52 PM,114.01,2004,Westchester County
531,WL20000118,41.02642,-73.68668000000001,10573,P,01/03/2020 04:25 PM,83.02,2004,Westchester County
532,WL20000125,40.965540000000004,-73.7324,10543,M,01/03/2020 08:06 PM,73,2000,Westchester County
533,WL20000127,41.03098,-73.68456,10573,M,01/03/2020 09:47 PM,83.02,3031,Westchester County
534,XL20000091,40.83915,-73.86735999999999,10460,M,01/03/2020 08:37 AM,218,3000,Bronx County
535,XL20000126,40.824459999999995,-73.8896,10459,P,01/03/2020 03:38 PM,119,3000,Bronx County
536,WL20000082,40.96739,-73.78774,10804,M,01/03/2020 10:01 AM,68.01,3015,Westchester County
537,ML20000162,40.77203,-73.95602,10075,P,01/04/2020 12:58 PM,134,1000,New York County
538,ML20000174,40.78086,-73.9588,10028,P,01/04/2020 03:41 PM,150.02,2001,New York County
539,ML20000176,40.757459999999995,-73.97168,10022,P,01/04/2020 03:59 PM,100,1004,New York County
540,ML20000184,40.753409999999995,-73.99632,10001,M,01/04/2020 06:11 PM,111,2005,New York County
541,ML20000195,40.71174,-74.00029,10038,P,01/04/2020 10:57 PM,27,1005,New York County
542,QL20000074,40.76957,-73.80556999999999,11358,P,01/04/2020 08:07 AM,1151,1001,Queens County
543,QL20000075,40.76761,-73.76608,11361,P,01/04/2020 09:13 AM,1113,3007,Queens County
544,QL20000084,40.759370000000004,-73.79054000000001,11358,M,01/04/2020 12:22 PM,1175,4007,Queens County
545,QL20000086,40.74584,-73.71736999999999,11004,P,01/04/2020 02:00 PM,1551.04,4005,Queens County
546,QL20000094,40.759370000000004,-73.79054000000001,11358,M,01/04/2020 06:37 PM,1175,4007,Queens County
547,WL20000133,41.33703,-73.78707,10535,M,01/04/2020 07:51 AM,148.06,5015,Westchester County
548,WL20000134,40.91813,-73.90502,10705,P,01/04/2020 08:53 AM,2.02,3005,Westchester County
549,WL20000135,40.94758,-73.76659000000001,10538,P,01/04/2020 09:41 AM,70,4001,Westchester County
550,WL20000136,41.171440000000004,-73.77769,10514,P,01/04/2020 10:33 AM,131.04,2006,Westchester County
551,WL20000139,41.19661,-73.72182,10549,M,01/04/2020 11:04 AM,130,3012,Westchester County
552,WL20000146,40.95704,-73.82185,10707,M,01/04/2020 12:03 PM,48.02,5006,Westchester County
553,WL20000149,40.938,-73.76146,10538,P,01/04/2020 12:16 PM,70,3015,Westchester County
554,XL20000156,40.889829999999996,-73.84283,10466,P,01/04/2020 09:39 AM,426,1003,Bronx County
555,XL20000158,40.88496,-73.83033,10466,M,01/04/2020 11:05 AM,462.09,1008,Bronx County
556,ML20000206,40.86665,-73.92415,10034,P,01/05/2020 10:09 AM,295,3001,New York County
557,WL20000171,40.95568,-73.81611,10709,P,01/05/2020 11:38 AM,51,1007,Westchester County
558,WL20000172,40.963440000000006,-73.77793,10804,M,01/05/2020 11:51 AM,68.02,2015,Westchester County
559,WL20000185,41.086290000000005,-73.86259,10591,M,01/05/2020 09:30 PM,116.02,3007,Westchester County
560,WL20000189,41.21456,-73.90056,10520,M,01/06/2020 02:03 AM,139,4000,Westchester County
561,XL20000199,40.86468,-73.8996,10468,P,01/05/2020 11:53 AM,265,4001,Bronx County
562,ML19012935,40.74192,-73.99725,10011,P,08/27/2019 12:38 PM,87,2000,New York County
563,ML20000241,40.788790000000006,-73.97358,10024,P,01/06/2020 09:04 AM,173,3001,New York County
564,ML20000253,40.8243,-73.94745999999999,10031,P,01/06/2020 12:08 PM,227,1000,New York County
565,ML20000255,40.71262,-73.99041,10002,P,01/06/2020 01:32 PM,6,1002,New York County
566,ML20000263,40.722770000000004,-73.97672,10009,P,01/06/2020 03:34 PM,26.02,1002,New York County
567,ML20000266,40.792770000000004,-73.97133000000001,10025,P,01/06/2020 04:28 PM,183,7001,New York County
568,ML20000274,40.71841,-73.99118,10002,P,01/06/2020 07:43 PM,18,6000,New York County
569,QL20000119,40.7355,-73.79749,11365,P,01/06/2020 09:57 AM,1223,2003,Queens County
570,QL20000120,40.701840000000004,-73.75249000000001,11412,M,01/06/2020 10:12 AM,518,2001,Queens County
571,WL20000192,41.26101,-73.91843,10567,M,01/06/2020 08:32 AM,146.06,1011,Westchester County
572,WL20000195,41.13997,-73.77855,10570,M,01/06/2020 09:17 AM,122.01,4006,Westchester County
573,WL20000196,41.14289,-73.68193000000001,10504,M,01/06/2020 09:28 AM,123.04,1012,Westchester County
574,WL20000197,40.919740000000004,-73.80836,10803,M,01/06/2020 09:31 AM,53,1012,Westchester County
575,WL20000205,40.913140000000006,-73.90096,10705,M,01/06/2020 10:19 AM,2.03,2008,Westchester County
576,WL20000206,41.1898,-73.87133,10562,P,01/06/2020 10:41 AM,137,1000,Westchester County
577,WL20000208,40.96522,-73.73226,10543,P,01/06/2020 11:04 AM,73,2000,Westchester County
578,WL20000209,41.150009999999995,-73.66764,10504,M,01/06/2020 11:35 AM,123.04,1002,Westchester County
579,WL20000211,41.07465,-73.77472,10595,P,01/06/2020 11:49 AM,119.02,2034,Westchester County
580,WL20000217,41.18998,-73.86916,10562,P,01/06/2020 12:54 PM,137,1011,Westchester County
581,WL20000219,41.1325,-73.79411,10570,M,01/06/2020 01:04 PM,122.02,5028,Westchester County
582,WL20000221,41.28607,-73.92334,10566,M,01/06/2020 01:23 PM,141,1012,Westchester County
583,WL20000226,40.96351,-73.80215,10709,M,01/06/2020 02:15 PM,50.02,3013,Westchester County
584,WL20000229,41.087790000000005,-73.86187,10591,M,01/06/2020 02:58 PM,116.02,3000,Westchester County
585,WL20000230,40.923190000000005,-73.76329,10538,P,01/06/2020 03:11 PM,71,2021,Westchester County
586,WL20000231,41.07662,-73.77695,10595,P,01/06/2020 03:42 PM,119.02,2016,Westchester County
587,WL20000232,41.20668,-73.8929,10520,M,01/06/2020 03:44 PM,139,3007,Westchester County
588,WL20000233,41.214490000000005,-73.90148,10520,M,01/06/2020 04:11 PM,139,4000,Westchester County
589,WL20000234,40.98962,-73.72138000000001,10528,M,01/06/2020 06:45 PM,85,1030,Westchester County
590,XL20000264,40.83082,-73.8172,10465,P,01/06/2020 03:23 PM,160,1009,Bronx County
591,ML20000283,40.72939,-74.00102,10012,P,01/07/2020 06:52 AM,65,3001,New York County
592,ML20000308,40.71393,-73.99181,10002,M,01/07/2020 02:43 PM,6,1000,New York County
593,ML20000312,40.81058,-73.96217,10027,M,01/07/2020 02:56 PM,205,1007,New York County
594,ML20000318,40.716840000000005,-74.002,10013,P,01/07/2020 04:31 PM,31,1007,New York County
595,ML20000332,40.76657,-73.99042,10019,M,01/07/2020 09:38 PM,135.01,2003,New York County
596,QL20000159,40.75741,-73.94516999999999,11101,M,01/07/2020 09:07 AM,85,2005,Queens County
597,QL20000161,40.71546,-73.83234,11375,P,01/07/2020 09:29 AM,757.01,3002,Queens County
598,QL20000163,40.766490000000005,-73.83341,11354,P,01/07/2020 10:13 AM,869,2021,Queens County
599,QL20000166,40.75447,-73.76469,11364,M,01/07/2020 10:19 AM,1441,4002,Queens County
600,QL20000178,40.75377,-73.91858,11101,P,01/07/2020 11:34 AM,159,3001,Queens County
601,QL20000186,40.76097,-73.76438,11361,M,01/07/2020 01:27 PM,1471,2004,Queens County
602,QL20000196,40.64463,-73.77736999999999,11430,P,01/07/2020 04:56 PM,716,1051,Queens County
603,WL20000256,41.12061,-73.70906,10504,P,01/07/2020 08:35 AM,123.03,3036,Westchester County
604,WL20000257,41.18135,-73.85911999999999,10562,P,01/07/2020 08:47 AM,137,1039,Westchester County
605,WL20000260,41.04609,-73.81998,10607,P,01/07/2020 09:38 AM,111.01,3001,Westchester County
606,WL20000262,40.993190000000006,-73.78588,10583,M,01/07/2020 09:44 AM,99,3006,Westchester County
607,WL20000263,40.89268,-73.81401,10803,P,01/07/2020 09:46 AM,55,4007,Westchester County
608,WL20000264,40.993190000000006,-73.78588,10583,M,01/07/2020 09:46 AM,99,3006,Westchester County
609,WL20000265,40.945,-73.87767,10701,P,01/07/2020 09:56 AM,16,4009,Westchester County
610,WL20000266,41.120509999999996,-73.76932,10594,M,01/07/2020 10:02 AM,121.02,3024,Westchester County
611,WL20000268,40.92716,-73.79278000000001,10801,M,01/07/2020 10:21 AM,66,3004,Westchester County
612,WL20000275,41.0902,-73.81182,10532,M,01/07/2020 11:35 AM,9810,1016,Westchester County
613,WL20000276,41.294940000000004,-73.91543,10566,M,01/07/2020 11:40 AM,144,2008,Westchester County
614,WL20000285,41.03712,-73.85972,10533,P,01/07/2020 01:48 PM,113,1021,Westchester County
615,WL20000298,41.00582,-73.73206,10605,M,01/07/2020 06:12 PM,97.03,3002,Westchester County
616,XL20000296,40.8232,-73.80872,10465,M,01/07/2020 11:55 AM,138,1024,Bronx County
617,XL20000297,40.85471,-73.89513000000001,10457,P,01/07/2020 12:13 PM,385,4003,Bronx County
618,XL20000298,40.85779,-73.90675999999999,10453,P,01/07/2020 12:24 PM,251,5001,Bronx County
619,XL20000322,40.84438,-73.83463,10461,P,01/07/2020 05:53 PM,266.02,3003,Bronx County
620,ML20000340,40.72012,-73.99923000000001,10013,P,01/08/2020 08:27 AM,45,1009,New York County
621,ML20000357,40.73754,-74.0057,10014,M,01/08/2020 11:16 AM,79,4006,New York County
622,ML20000372,40.70765,-74.0031,11201,M,01/08/2020 03:15 PM,15.01,3009,New York County
623,ML20000377,40.7809,-73.95485,10128,P,01/08/2020 04:35 PM,148.02,3000,New York County
624,ML20000385,40.75752,-73.97584,10022,M,01/08/2020 06:48 PM,102,1012,New York County
625,QL20000204,40.769729999999996,-73.83034,11354,M,01/08/2020 08:56 AM,889.02,5000,Queens County
626,QL20000208,40.76598,-73.77224,11361,M,01/08/2020 09:30 AM,1123,1009,Queens County
627,QL20000213,40.73941,-73.92799000000001,11101,P,01/08/2020 10:55 AM,189,2006,Queens County
628,QL20000222,40.7533,-73.93403,11101,P,01/08/2020 01:15 PM,31,2000,Queens County
629,WL20000306,41.205290000000005,-73.87841999999999,10520,M,01/08/2020 08:04 AM,138,1008,Westchester County
630,WL20000308,41.211729999999996,-73.87863,10520,M,01/08/2020 08:46 AM,139,1005,Westchester County
631,WL20000311,41.197559999999996,-73.88016999999999,10520,M,01/08/2020 09:23 AM,138,3017,Westchester County
632,WL20000313,40.96206,-73.72585,10543,P,01/08/2020 09:54 AM,74.01,1004,Westchester County
633,WL20000314,41.14543,-73.67579,10504,M,01/08/2020 09:58 AM,123.04,1013,Westchester County
634,WL20000317,41.210640000000005,-73.87979,10520,M,01/08/2020 10:12 AM,138,1002,Westchester County
635,WL20000318,41.04716,-73.78958,10607,M,01/08/2020 10:17 AM,109.02,4025,Westchester County
636,WL20000325,41.147940000000006,-73.67186,10504,M,01/08/2020 11:36 AM,123.04,1015,Westchester County
637,WL20000327,41.215340000000005,-73.90729,10520,M,01/08/2020 11:44 AM,139,4024,Westchester County
638,WL20000328,40.95247,-73.7918,10804,M,01/08/2020 11:50 AM,68.02,3049,Westchester County
639,WL20000329,40.9689,-73.79533,10583,M,01/08/2020 12:34 PM,50.01,1033,Westchester County
640,WL20000331,40.96293,-73.84723000000001,10710,M,01/08/2020 01:16 PM,20,3003,Westchester County
641,WL20000332,40.96982,-73.71852,10528,P,01/08/2020 01:53 PM,84.03,2034,Westchester County
642,WL20000335,40.95225,-73.79186999999999,10804,P,01/08/2020 12:41 PM,68.02,3049,Westchester County
643,WL20000340,40.9646,-73.80224,10583,M,01/08/2020 05:50 PM,50.02,3001,Westchester County
644,XL20000241,40.81222,-73.85988,10473,P,01/06/2020 11:20 AM,2,2003,Bronx County
645,XL20000344,40.87038,-73.86242,10467,P,01/08/2020 10:56 AM,340,1000,Bronx County
646,ML20000418,40.80147,-73.96046,10025,P,01/09/2020 12:57 PM,193,4000,New York County
647,ML20000420,40.71907,-74.00144,10013,P,01/09/2020 01:12 PM,31,1000,New York County
648,ML20000424,40.73103,-73.98592,10003,P,01/09/2020 04:12 PM,40.01,1001,New York County
649,ML20000426,40.70863,-74.00938000000001,10005,M,01/09/2020 06:24 PM,15.02,1008,New York County
650,QL20000243,40.75697,-73.80161,11358,P,01/09/2020 09:27 AM,1193,1006,Queens County
651,QL20000247,40.76165,-73.81522,11355,P,01/09/2020 10:40 AM,1167,1005,Queens County
652,QL20000259,40.72822,-73.79484000000001,11366,M,01/09/2020 11:48 AM,1247,1010,Queens County
653,QL20000274,40.7395,-73.92513000000001,11104,P,01/09/2020 03:58 PM,189,3004,Queens County
654,QL20000278,40.75589,-73.79377,11358,P,01/09/2020 04:53 PM,1459,1002,Queens County
655,WL20000360,41.23644,-73.7037,10507,M,01/09/2020 11:17 AM,128.03,2006,Westchester County
656,WL20000362,40.95495,-73.71155,10580,M,01/09/2020 11:55 AM,75,3014,Westchester County
657,WL20000363,40.935140000000004,-73.89019,10701,P,01/09/2020 12:18 PM,11.01,2000,Westchester County
658,WL20000369,40.99637,-73.82037,10583,P,01/09/2020 01:22 PM,107.01,4015,Westchester County
659,WL20000373,41.17772,-73.86584,10562,M,01/09/2020 02:10 PM,136,3021,Westchester County
660,WL20000374,40.95662,-73.89149,10701,M,01/09/2020 02:14 PM,7.01,2011,Westchester County
661,WL20000379,40.94526,-73.77759,10804,M,01/09/2020 02:55 PM,67,3002,Westchester County
662,WL20000386,41.01746,-73.68628000000001,10573,M,01/09/2020 04:13 PM,83.02,4005,Westchester County
663,WL20000387,40.95517,-73.88171,10703,M,01/09/2020 04:24 PM,8.01,3003,Westchester County
664,WL20000389,41.04417,-73.74107,10604,M,01/09/2020 05:34 PM,87,1014,Westchester County
665,WL20000393,40.91195,-73.88893,10705,P,01/09/2020 08:55 PM,13.02,3000,Westchester County
666,WL20000395,40.98545,-73.82275,10583,M,01/09/2020 09:50 PM,21.05,1006,Westchester County
667,XL19016774,40.87669,-73.85365999999999,10469,P,12/26/2019 02:13 PM,382,2005,Bronx County
668,XL20000404,40.84091,-73.9096,10457,P,01/09/2020 10:22 AM,225,2000,Bronx County
669,XL20000405,40.8283,-73.89556,10459,P,01/09/2020 10:48 AM,125,2004,Bronx County
670,XL20000409,40.817409999999995,-73.81626999999999,10465,P,01/09/2020 11:05 AM,118,3005,Bronx County
671,XL20000438,40.83728,-73.92636,10452,M,01/09/2020 04:10 PM,199,6001,Bronx County
672,XL20000447,40.86546,-73.85849,10469,M,01/09/2020 05:15 PM,326,1002,Bronx County
673,XL20000458,40.83513,-73.9261,10452,P,01/09/2020 07:32 PM,199,3001,Bronx County
674,ML20000549,40.71841,-74.00690999999999,10013,M,01/12/2020 10:49 AM,33,2007,New York County
675,ML20000551,40.80292,-73.93396,10035,P,01/12/2020 11:01 AM,242,3006,New York County
676,ML20000561,40.70933,-74.00187,10038,P,01/12/2020 01:54 PM,15.01,3002,New York County
677,ML20000571,40.81855,-73.9377,10037,P,01/12/2020 05:44 PM,232,2001,New York County
678,ML20000573,40.78844,-73.94906,10029,M,01/12/2020 05:30 PM,166,6000,New York County
679,ML20000591,40.71439,-73.98631,10002,P,01/13/2020 02:29 AM,14.01,2002,New York County
680,QL20000376,40.759370000000004,-73.79054000000001,11358,M,01/12/2020 03:52 PM,1175,4007,Queens County
681,WL20000494,40.978770000000004,-73.80396,10583,M,01/12/2020 07:56 AM,50.01,2024,Westchester County
682,WL20000495,41.048790000000004,-73.78921,10603,M,01/12/2020 09:06 AM,109.02,4020,Westchester County
683,WL20000496,40.99355,-73.71708000000001,10528,M,01/12/2020 09:51 AM,85,1008,Westchester County
684,WL20000497,41.28641,-73.91784,10566,M,01/12/2020 10:37 AM,145,3004,Westchester County
685,WL20000500,40.98918,-73.72203,10528,M,01/12/2020 12:04 PM,85,1011,Westchester County
686,WL20000501,40.90503,-73.85855,10704,M,01/12/2020 12:53 PM,15.02,1002,Westchester County
687,WL20000502,41.042359999999995,-73.81806999999999,10607,M,01/12/2020 01:12 PM,111.01,3011,Westchester County
688,WL20000507,40.92407,-73.86905,10704,P,01/12/2020 02:31 PM,14.01,3001,Westchester County
689,WL20000512,41.07062,-73.84577,10591,M,01/12/2020 07:11 PM,114.01,4007,Westchester County
690,ML20000462,40.79296,-73.97689,10024,P,01/10/2020 11:44 AM,179,1001,New York County
691,ML20000487,40.74842,-73.99999,10001,M,01/10/2020 06:03 PM,93,6000,New York County
692,QL20000289,40.74896,-73.77028,11364,M,01/10/2020 08:45 AM,1403,2006,Queens County
693,QL20000290,40.7684,-73.93585,11106,M,01/10/2020 09:01 AM,81,1008,Queens County
694,QL20000302,40.75034,-73.77190999999999,11364,M,01/10/2020 11:16 AM,1403,2000,Queens County
695,QL20000303,40.75096,-73.82345,11355,M,01/10/2020 11:44 AM,837,1000,Queens County
696,QL20000304,40.762609999999995,-73.90611,11103,P,01/10/2020 11:46 AM,145,1003,Queens County
697,QL20000312,40.747009999999996,-73.89596,11377,M,01/10/2020 12:41 PM,263,1006,Queens County
698,QL20000339,40.7618,-73.77571,11361,M,01/10/2020 05:26 PM,1467,3000,Queens County
699,QL20000347,40.75925,-73.79196999999999,11358,P,01/10/2020 10:46 PM,1175,4006,Queens County
700,WL20000407,41.16364,-73.77689000000001,10514,M,01/10/2020 09:21 AM,131.04,4016,Westchester County
701,WL20000410,40.920320000000004,-73.77091999999999,10801,M,01/10/2020 09:40 AM,59.02,2017,Westchester County
702,WL20000420,41.08195,-73.86932,10591,P,01/10/2020 11:08 AM,116.02,3013,Westchester County
703,WL20000436,41.26164,-73.91933,10567,M,01/10/2020 12:48 PM,146.06,1000,Westchester County
704,WL20000437,41.1608,-73.84778,10510,M,01/10/2020 01:06 PM,132.02,2004,Westchester County
705,WL20000446,41.16142,-73.77596,10514,M,01/10/2020 03:42 PM,131.04,3027,Westchester County
706,XL20000468,40.83457,-73.89123000000001,10460,P,01/10/2020 09:11 AM,155,2002,Bronx County
707,XL20000471,40.839490000000005,-73.91776999999999,10452,P,01/10/2020 09:56 AM,221.01,2000,Bronx County
708,XL20000477,40.89264,-73.8426,10466,P,01/10/2020 10:38 AM,426,6002,Bronx County
709,XL20000511,40.83477,-73.92309,10452,P,01/10/2020 02:42 PM,63.02,1000,Bronx County
710,QL20000357,40.75294,-73.92281,11101,M,01/11/2020 11:39 AM,157,1007,Queens County
711,WL20000467,40.97529,-73.80915999999999,10583,M,01/11/2020 07:40 AM,50.02,2007,Westchester County
712,WL20000470,41.20883,-73.74178,10549,P,01/11/2020 09:40 AM,131.04,1039,Westchester County
713,WL20000480,40.99928,-73.6722,10573,P,01/11/2020 12:37 PM,79.02,6004,Westchester County
714,ML20000606,40.76764,-73.9616,10021,P,01/13/2020 11:00 AM,126.01,4000,New York County
715,ML20000628,40.75525,-73.96358000000001,10022,P,01/13/2020 03:19 PM,86.03,1000,New York County
716,QL20000381,40.74795,-73.91584,11104,P,01/13/2020 07:25 AM,169,2011,Queens County
717,QL20000384,40.74074,-73.92234,11104,M,01/13/2020 09:30 AM,185.02,3005,Queens County
718,QL20000388,40.74256,-73.91771999999999,11104,P,01/13/2020 10:05 AM,235.02,2004,Queens County
719,QL20000391,40.737829999999995,-73.7558,11364,M,01/13/2020 10:27 AM,1291.03,2000,Queens County
720,QL20000395,40.75158,-73.7146,11005,P,01/13/2020 10:56 AM,1551.03,6000,Queens County
721,QL20000396,40.72972,-73.82441,11367,P,01/13/2020 11:05 AM,779.02,1000,Queens County
722,QL20000397,40.739020000000004,-73.93566,11101,P,01/13/2020 11:10 AM,199.02,1019,Queens County
723,QL20000399,40.76328,-73.77423,11361,P,01/13/2020 11:25 AM,1129,3008,Queens County
724,QL20000402,40.75853,-73.94157,11101,M,01/13/2020 12:13 PM,85,1008,Queens County
725,QL20000411,40.72565,-73.79807,11366,P,01/13/2020 01:30 PM,1247,3005,Queens County
726,QL20000416,40.76783,-73.92766,11102,P,01/13/2020 02:22 PM,79,1003,Queens County
727,QL20000418,40.768440000000005,-73.92716,11102,P,01/13/2020 03:08 PM,79,1003,Queens County
728,QL20000423,40.735890000000005,-73.77346999999999,11366,P,01/13/2020 04:08 PM,1333,1000,Queens County
729,QL20000428,40.722590000000004,-73.80103000000001,11366,M,01/13/2020 06:11 PM,1265,1001,Queens County
730,QL20000429,40.7225,-73.80099,11432,M,01/13/2020 06:29 PM,1265,1000,Queens County
731,WL20000520,40.980309999999996,-73.79766,10583,M,01/13/2020 08:06 AM,101,2010,Westchester County
732,WL20000521,40.9187,-73.87539,10705,M,01/13/2020 08:29 AM,14.02,1017,Westchester County
733,WL20000524,41.15372,-73.82929,10510,P,01/13/2020 09:42 AM,132.02,1010,Westchester County
734,WL20000527,40.98046,-73.79807,10583,M,01/13/2020 10:19 AM,101,2010,Westchester County
735,WL20000529,41.01274,-73.67475999999999,10573,M,01/13/2020 10:30 AM,82,2005,Westchester County
736,WL20000531,40.93565,-73.86874,10701,P,01/13/2020 10:55 AM,23,1005,Westchester County
737,WL20000533,41.12811,-73.71793000000001,10504,M,01/13/2020 11:12 AM,123.03,3012,Westchester County
738,WL20000537,40.91946,-73.87123000000001,10704,P,01/13/2020 11:56 AM,14.01,3011,Westchester County
739,WL20000538,41.04417,-73.86513000000001,10533,P,01/13/2020 12:02 PM,113,5001,Westchester County
740,WL20000544,40.99869,-73.75639,10605,M,01/13/2020 01:02 PM,97.01,3000,Westchester County
741,WL20000546,41.04647,-73.79491,10603,M,01/13/2020 01:38 PM,109.03,1000,Westchester County
742,WL20000549,40.93849,-73.82794,10708,P,01/13/2020 01:49 PM,47,2046,Westchester County
743,WL20000550,41.059259999999995,-73.86157,10591,M,01/13/2020 02:04 PM,114.02,1017,Westchester County
744,WL20000551,41.01866,-73.67935,10573,M,01/13/2020 02:10 PM,83.01,2003,Westchester County
745,WL20000553,40.98446,-73.68061999999999,10580,M,01/13/2020 02:13 PM,77,1017,Westchester County
746,WL20000556,40.93345,-73.88874,10701,P,01/13/2020 02:31 PM,11.01,1003,Westchester County
747,WL20000561,40.98019,-73.79729,10583,M,01/13/2020 03:25 PM,101,2009,Westchester County
748,WL20000569,40.931670000000004,-73.80663,10708,M,01/13/2020 05:06 PM,52,1010,Westchester County
749,XL20000625,40.84369,-73.84733,10461,P,01/13/2020 01:53 PM,256,2001,Bronx County
750,XL20000680,40.83163,-73.90051,10456,M,01/13/2020 06:55 PM,149,2001,Bronx County
751,ML20000597,40.74197,-73.98087,10016,M,01/13/2020 09:49 AM,68,6000,New York County
752,ML20000600,40.72266,-73.9768,10009,P,01/13/2020 09:56 AM,26.02,1002,New York County
753,WL20000601,41.00653,-73.66313000000001,10573,M,01/14/2020 01:19 PM,80,1002,Westchester County
754,ML20000662,40.715990000000005,-73.9867,10002,M,01/14/2020 10:00 AM,14.02,2006,New York County
755,ML20000671,40.77912,-73.97480999999999,10023,P,01/14/2020 11:20 AM,161,2000,New York County
756,ML20000672,40.73559,-74.00305,10014,P,01/14/2020 11:27 AM,73,6000,New York County
757,ML20000686,40.75118,-73.98899999999999,10001,P,01/14/2020 01:52 PM,109,1007,New York County
758,ML20000699,40.73057,-74.00679000000001,10014,P,01/14/2020 05:06 PM,67,4004,New York County
759,ML20000710,40.8013,-73.95955000000002,10026,P,01/14/2020 08:35 PM,197.01,1000,New York County
760,ML20000712,40.80147,-73.96046,10025,P,01/14/2020 08:47 PM,193,4000,New York County
761,QL20000433,40.75853,-73.94157,11101,M,01/14/2020 09:02 AM,85,1008,Queens County
762,QL20000444,40.765640000000005,-73.93915,11106,P,01/14/2020 11:21 AM,39,1000,Queens County
763,QL20000453,40.72741,-73.82448000000001,11367,M,01/14/2020 12:55 PM,779.02,1003,Queens County
764,QL20000459,40.76686,-73.93741999999999,11106,P,01/14/2020 01:11 PM,45,1001,Queens County
765,QL20000467,40.73506,-73.79751999999999,11365,P,01/14/2020 04:34 PM,1223,2003,Queens County
766,WL20000581,40.95903,-73.83339000000001,10710,P,01/14/2020 08:13 AM,21.04,1003,Westchester County
767,WL20000583,40.99628,-73.80183000000001,10583,M,01/14/2020 08:41 AM,100,4017,Westchester County
768,WL20000588,40.932970000000005,-73.77656,10804,M,01/14/2020 10:55 AM,67,2023,Westchester County
769,WL20000589,41.003,-73.66651999999999,10573,P,01/14/2020 10:55 AM,80,3006,Westchester County
770,WL20000590,40.9273,-73.84894,10704,P,01/14/2020 10:58 AM,24.02,1000,Westchester County
771,WL20000591,40.98687,-73.82194,10583,P,01/14/2020 11:20 AM,107.02,2020,Westchester County
772,WL20000592,41.042809999999996,-73.79075,10607,M,01/14/2020 11:42 AM,109.02,3008,Westchester County
773,WL20000595,41.01097,-73.78948000000001,10583,M,01/14/2020 12:43 PM,100,3003,Westchester County
774,WL20000596,41.28862,-73.91095,10566,M,01/14/2020 12:44 PM,145,2002,Westchester County
775,WL20000598,41.07224,-73.77743000000001,10595,M,01/14/2020 12:53 PM,119.02,3004,Westchester County
776,WL20000603,40.93678,-73.77023,10804,M,01/14/2020 01:52 PM,67,2015,Westchester County
777,WL20000606,40.95617,-73.80790999999999,10709,M,01/14/2020 02:40 PM,51,3013,Westchester County
778,WL20000611,40.90209,-73.80933,10803,M,01/14/2020 04:20 PM,54,2029,Westchester County
779,XL20000701,40.8466,-73.91474000000001,10453,P,01/14/2020 09:00 AM,217,4000,Bronx County
780,XL20000708,40.89098,-73.83109,10466,M,01/14/2020 10:12 AM,456,2003,Bronx County
781,XL20000709,40.811859999999996,-73.88795999999999,10474,P,01/14/2020 10:17 AM,93.01,6005,Bronx County
782,XL20000711,40.85479,-73.86104,10462,P,01/14/2020 10:47 AM,248,2002,Bronx County
